NORAD_CAT_ID,OBJECT_NAME,OBJECT_TYPE,EPOCH,MEAN_MOTION,ECCENTRICITY,INCLINATION,RA_OF_ASC_NODE,ARG_OF_PERICENTER,MEAN_ANOMALY,BSTAR,MEAN_MOTION_DOT,MEAN_MOTION_DDOT,TLE_LINE0,TLE_LINE1,TLE_LINE2,SEMIMAJOR_AXIS,PERIOD,APOGEE,PERIGEE,DECAYED
53033.0,STARLINK-4167,PAYLOAD,2022-09-07 22:00:00,15.73206536,0.000237,53.2159,70.9096,21.4198,100.6826,0.00035213,0.00049105,0.0,0 STARLINK-4167,1 53033U 22076AZ  22250.91667824  .00049105  00000-0  35213-3 0  9991,2 53033  53.2159  70.9096 0002370  21.4198 100.6826 15.73206536  1304,6727.877,91.533,351.336,348.147,0.0
53033.0,STARLINK-4167,PAYLOAD,2022-09-08 06:00:00,15.73217487,0.0002165,53.2156,69.258,18.2262,192.8544,0.00017757,0.00024392,0.0,0 STARLINK-4167,1 53033U 22076AZ  22251.25001157  .00024392  00000-0  17757-3 0  9994,2 53033  53.2156  69.2580 0002165  18.2262 192.8544 15.73217487 10361,6727.845,91.532,351.167,348.254,0.0
53033.0,STARLINK-4167,PAYLOAD,2022-09-08 14:00:01,15.7326934,0.0002121999999999,53.2157,67.6086,20.2122,279.789,-0.00044404,-0.00062668,0.0,0 STARLINK-4167,1 53033U 22076AZ  22251.58334491 -.00062668  00000-0 -44404-3 0  9999,2 53033  53.2157  67.6086 0002122  20.2122 279.7890 15.73269340  1304,6727.696999999999,91.529,350.99,348.135,0.0
53033.0,STARLINK-4167,PAYLOAD,2022-09-08 22:00:00,15.73194473,0.0002435,53.2156,65.9605,19.9205,9.0904,0.00047519,0.00066589,0.0,0 STARLINK-4167,1 53033U 22076AZ  22251.91667824  .00066589  00000-0  47519-3 0  9999,2 53033  53.2156  65.9605 0002435  19.9205   9.0904 15.73194473 10477,6727.911,91.534,351.414,348.13800000000015,0.0
53033.0,STARLINK-4167,PAYLOAD,2022-09-09 06:00:00,15.73187648,0.0002228,53.216,64.3088,17.9805,99.9828,5.2076e-05,6.69e-05,0.0,0 STARLINK-4167,1 53033U 22076AZ  22252.25001157  .00006690  00000-0  52076-4 0  9990,2 53033  53.2160  64.3088 0002228  17.9805  99.9828 15.73187648 10529,6727.93,91.534,351.2940000000001,348.296,0.0
53033.0,STARLINK-4167,PAYLOAD,2022-09-09 14:00:01,15.73244317,0.0002305,53.2163,62.6594,21.2819,185.5863,-0.00058481,-0.00082066,0.0,0 STARLINK-4167,1 53033U 22076AZ  22252.58334491 -.00082066  00000-0 -58481-3 0  9994,2 53033  53.2163  62.6594 0002305  21.2819 185.5863 15.73244317  1308,6727.769,91.531,351.185,348.083,0.0
53033.0,STARLINK-4167,PAYLOAD,2022-09-09 22:00:00,15.73152707,0.0002631,53.216,61.0059,19.2308,276.5974,-7.100100000000001e-05,-0.00010555,0.0,0 STARLINK-4167,1 53033U 22076AZ  22252.91667824 -.00010555  00000-0 -71001-4 0  9998,2 53033  53.2160  61.0059 0002631  19.2308 276.5974 15.73152707  1301,6728.03,91.536,351.665,348.125,0.0
53033.0,STARLINK-4167,PAYLOAD,2022-09-10 06:00:02,15.73194165,0.0002400999999999,53.2159,59.3596,18.8866,5.9617,-9.8422e-05,-0.00014409,0.0,0 STARLINK-4167,1 53033U 22076AZ  22253.25002315 -.00014409  00000-0 -98422-4 0  9992,2 53033  53.2159  59.3596 0002401  18.8866   5.9617 15.73194165 10687,6727.9119999999975,91.534,351.392,348.161,0.0
53033.0,STARLINK-4167,PAYLOAD,2022-09-10 14:00:01,15.73169739,0.0002503,53.216,57.7107,22.4461,91.2487,0.00021234,0.00029247,0.0,0 STARLINK-4167,1 53033U 22076AZ  22253.58334491  .00029247  00000-0  21234-3 0  9991,2 53033  53.2160  57.7107 0002503  22.4461  91.2487 15.73169739  1305,6727.981,91.535,351.53,348.162,0.0
53033.0,STARLINK-4167,PAYLOAD,2022-09-10 22:00:00,15.73178822,0.0002717,53.2159,56.0627,17.7241,184.8738,0.00014382,0.00019594,0.0,0 STARLINK-4167,1 53033U 22076AZ  22253.91667824  .00019594  00000-0  14382-3 0  9997,2 53033  53.2159  56.0627 0002717  17.7241 184.8738 15.73178822  1303,6727.956,91.534,351.649,347.99300000000005,0.0
53033.0,STARLINK-4167,PAYLOAD,2022-09-11 14:00:01,15.73259478,0.0002631999999999,53.2169,52.7621,17.2323,3.1773,-0.00038542,-0.00054512,0.0,0 STARLINK-4167,1 53033U 22076AZ  22254.58334491 -.00054512  00000-0 -38542-3 0  9997,2 53033  53.2169  52.7621 0002632  17.2323   3.1773 15.73259478  1302,6727.726,91.53,351.361,347.82,0.0
53033.0,STARLINK-4167,PAYLOAD,2022-09-11 22:00:00,15.73202243,0.0002897,53.2164,51.1075,15.4732,93.9254,-0.00020078,-0.00028714,0.0,0 STARLINK-4167,1 53033U 22076AZ  22254.91667824 -.00028714  00000-0 -20078-3 0  9993,2 53033  53.2164  51.1075 0002897  15.4732  93.9254 15.73202243  1309,6727.889,91.533,351.70300000000015,347.805,0.0
53033.0,STARLINK-4167,PAYLOAD,2022-09-12 06:00:00,15.73192408,0.0002686999999999,53.2166,49.4622,15.3783,182.9809,0.00012034,0.00016296,0.0,0 STARLINK-4167,1 53033U 22076AZ  22255.25001157  .00016296  00000-0  12034-3 0  9995,2 53033  53.2166  49.4622 0002687  15.3783 182.9809 15.73192408 10992,6727.917,91.534,351.59,347.974,0.0
53033.0,STARLINK-4167,PAYLOAD,2022-09-12 14:00:01,15.731910999999998,0.0002788,53.2167,47.8137,14.3052,272.98400000000004,0.00024885,0.00034438,0.0,0 STARLINK-4167,1 53033U 22076AZ  22255.58334491  .00034438  00000-0  24885-3 0  9996,2 53033  53.2167  47.8137 0002788  14.3052 272.9840 15.73191100  1304,6727.920999999999,91.534,351.661,347.91,0.0
53033.0,STARLINK-4167,PAYLOAD,2022-09-12 22:00:00,15.7323491,0.0003063999999999,53.2165,46.1655,13.0347,3.182,-0.00011741,-0.00017096,0.0,0 STARLINK-4167,1 53033U 22076AZ  22255.91667824 -.00017096  00000-0 -11741-3 0  9992,2 53033  53.2165  46.1655 0003064  13.0347   3.1820 15.73234910  1309,6727.795999999999,91.531,351.722,347.599,0.0
53033.0,STARLINK-4167,PAYLOAD,2022-09-13 14:00:01,15.73235345,0.000298,53.2174,42.8651,12.1901,181.9252,-0.00048168,-0.00067801,0.0,0 STARLINK-4167,1 53033U 22076AZ  22256.58334491 -.00067801  00000-0 -48168-3 0  9999,2 53033  53.2174  42.8651 0002980  12.1901 181.9252 15.73235345  1307,6727.794,91.531,351.664,347.655,0.0
53033.0,STARLINK-4167,PAYLOAD,2022-09-13 16:00:00,15.7322289,0.0003105,53.2174,42.4503,12.0045,294.3524,-0.00041736,-0.00058862,0.0,0 STARLINK-4167,1 53033U 22076AZ  22256.66667824 -.00058862  00000-0 -41736-3 0  9998,2 53033  53.2174  42.4503 0003105  12.0045 294.3524 15.73222890 11221,6727.83,91.532,351.784,347.606,0.0
53033.0,STARLINK-4167,PAYLOAD,2022-09-13 22:00:00,15.73263531,0.0003151,53.217,41.2061,9.8246,273.2237,-0.0016300999999999,-0.00224107,0.0,0 STARLINK-4167,1 53033U 22076AZ  22256.91667824 -.00224107  00000-0 -16301-2 0  9992,2 53033  53.2170  41.2061 0003151   9.8246 273.2237 15.73263531  1303,6727.714,91.529,351.699,347.459,0.0
53033.0,STARLINK-4167,PAYLOAD,2022-09-14 14:00:01,15.73061392,0.0003037,53.2174,37.8981,17.016,83.8828,0.001296,0.00184231,0.0,0 STARLINK-4167,1 53033U 22076AZ  22257.58334491  .00184231  00000-0  12960-2 0  9995,2 53033  53.2174  37.8981 0003037  17.0160  83.8828 15.73061392 11367,6728.29,91.541,352.199,348.112,0.0
53033.0,STARLINK-4167,PAYLOAD,2022-09-14 22:00:00,15.73190343,0.0003475,53.2155,36.2688,16.0558,173.6961,0.00057889,0.00081398,0.0,0 STARLINK-4167,1 53033U 22076AZ  22257.91667824  .00081398  00000-0  57889-3 0  9991,2 53033  53.2155  36.2688 0003475  16.0558 173.6961 15.73190343  1307,6727.9230000000025,91.534,352.126,347.45,0.0
53033.0,STARLINK-4167,PAYLOAD,2022-09-15 06:00:00,15.73225577,0.0003256999999999,53.2153,34.6172,15.0607,263.649,0.00018378,0.00025281,0.0,0 STARLINK-4167,1 53033U 22076AZ  22258.25001157  .00025281  00000-0  18378-3 0  9999,2 53033  53.2153  34.6172 0003257  15.0607 263.6490 15.73225577 11471,6727.821999999999,91.532,351.879,347.496,0.0
53033.0,STARLINK-4167,PAYLOAD,2022-09-15 14:00:01,15.73275427,0.0003413999999999,53.2156,32.969,12.0083,355.6654,-0.00059397,-0.0008346,0.0,0 STARLINK-4167,1 53033U 22076AZ  22258.58334491 -.00083460  00000-0 -59397-3 0  9996,2 53033  53.2156  32.9690 0003414  12.0083 355.6654 15.73275427  1304,6727.68,91.529,351.842,347.24800000000016,0.0
53033.0,STARLINK-4167,PAYLOAD,2022-09-15 22:00:00,15.73238177,0.0003608,53.2153,31.3198,7.8716,88.7808,-0.00026253,-0.00037379,0.0,0 STARLINK-4167,1 53033U 22076AZ  22258.91667824 -.00037379  00000-0 -26253-3 0  9995,2 53033  53.2153  31.3198 0003608   7.8716  88.7808 15.73238177  1303,6727.786,91.531,352.079,347.224,0.0
53033.0,STARLINK-4167,PAYLOAD,2022-09-16 02:00:01,15.73199859,0.0003461999999999,53.2155,30.494,8.1624,312.9704,5.361799999999998e-06,1.29e-06,0.0,0 STARLINK-4167,1 53033U 22076AZ  22259.08334491  .00000129  00000-0  53618-5 0  9993,2 53033  53.2155  30.4940 0003462   8.1624 312.9704 15.73199859 11604,6727.896,91.533,352.09,347.431,0.0
53033.0,STARLINK-4167,PAYLOAD,2022-09-16 14:00:01,15.73183543,0.00036,53.2151,28.0207,8.1467,266.3841,-0.00096851,-0.00134366,0.0,0 STARLINK-4167,1 53033U 22076AZ  22259.58334491 -.00134366  00000-0 -96851-3 0  9995,2 53033  53.2151  28.0207 0003600   8.1467 266.3841 15.73183543  1301,6727.941999999999,91.534,352.22900000000016,347.385,0.0
53033.0,STARLINK-4167,PAYLOAD,2022-09-16 16:00:00,15.73130213,0.0003634,53.2152,27.6087,7.7848,18.9824,-0.00032388,-0.00045714,0.0,0 STARLINK-4167,1 53033U 22076AZ  22259.66667824 -.00045714  00000-0 -32388-3 0  9996,2 53033  53.2152  27.6087 0003634   7.7848  18.9824 15.73130213 11699,6728.094,91.537,352.404,347.514,0.0
53033.0,STARLINK-4167,PAYLOAD,2022-09-16 22:00:00,15.73104305,0.0003753999999999,53.2148,26.3716,5.2642,358.1202,0.00035833,0.00049775,0.0,0 STARLINK-4167,1 53033U 22076AZ  22259.91667824  .00049775  00000-0  35833-3 0  9991,2 53033  53.2148  26.3716 0003754   5.2642 358.1202 15.73104305  1306,6728.168000000002,91.539,352.559,347.50699999999995,0.0
53033.0,STARLINK-4167,PAYLOAD,2022-09-17 08:00:01,15.73136829,0.0003531,53.2153,24.3079,7.7555,196.6707,0.00056021,0.00078544,0.0,0 STARLINK-4167,1 53033U 22076AZ  22260.33334491  .00078544  00000-0  56021-3 0  9998,2 53033  53.2153  24.3079 0003531   7.7555 196.6707 15.73136829 11790,6728.075,91.537,352.316,347.565,0.0
53033.0,STARLINK-4167,PAYLOAD,2022-09-17 14:00:01,15.73180351,0.0003812,53.2153,23.0724,8.0025,173.0825,0.00020681,0.00028485,0.0,0 STARLINK-4167,1 53033U 22076AZ  22260.58334491  .00028485  00000-0  20681-3 0  9997,2 53033  53.2153  23.0724 0003812   8.0025 173.0825 15.73180351  1306,6727.951,91.534,352.381,347.251,0.0
